{
  "type": "FeatureCollection",
  "features": [
    {
      "type": "Feature",
      "properties": {
        "norad_id": 37048,
        "name": "FENGYUN 1C DEB",
        "group": "fengyun-1c-debris",
        "lat": 23.345531015980516,
        "lon": -149.2087987809928,
        "alt_km": 1066.4226826797749,
        "timestamp": "2025-12-19T22:41:52.682659+00:00",
        "meta_object_name": "FENGYUN 1C DEB",
        "meta_object_id": "1999-025EEG",
        "meta_epoch": "2025-12-18T08:43:47.867808",
        "meta_mean_motion": 13.65137419,
        "meta_eccentricity": 0.02535154,
        "meta_inclination": 98.8866,
        "meta_ra_of_asc_node": 213.2125,
        "meta_arg_of_pericenter": 134.7261,
        "meta_mean_anomaly": 41.2235,
        "meta_ephemeris_type": 0,
        "meta_classification_type": "U",
        "meta_norad_cat_id": 37048,
        "meta_element_set_no": 999,
        "meta_rev_at_epoch": 62246,
        "meta_bstar": 0.00017812456,
        "meta_mean_motion_dot": 1.43e-06,
        "meta_mean_motion_ddot": 0,
        "tle_line1": "1 37048U 99025EEG 25352.36374847  .00000143  00000+0  17812-3 0  9995",
        "tle_line2": "2 37048  98.8866 213.2125 0253515 134.7261  41.2235 13.65137419622467"
      },
      "geometry": {
        "type": "Point",
        "coordinates": [
          -149.2087987809928,
          23.345531015980516
        ]
      }
    },
    {
      "type": "Feature",
      "properties": {
        "norad_id": 37054,
        "name": "FENGYUN 1C DEB",
        "group": "fengyun-1c-debris",
        "lat": 5.166860044698814,
        "lon": -24.621233946857718,
        "alt_km": 815.1011468392508,
        "timestamp": "2025-12-19T22:41:52.682669+00:00",
        "meta_object_name": "FENGYUN 1C DEB",
        "meta_object_id": "1999-025EEN",
        "meta_epoch": "2025-12-18T04:22:47.839296",
        "meta_mean_motion": 14.19457855,
        "meta_eccentricity": 0.01012295,
        "meta_inclination": 98.5505,
        "meta_ra_of_asc_node": 334.4558,
        "meta_arg_of_pericenter": 89.7023,
        "meta_mean_anomaly": 271.5753,
        "meta_ephemeris_type": 0,
        "meta_classification_type": "U",
        "meta_norad_cat_id": 37054,
        "meta_element_set_no": 999,
        "meta_rev_at_epoch": 64506,
        "meta_bstar": 0.00022919283,
        "meta_mean_motion_dot": 4.67e-06,
        "meta_mean_motion_ddot": 0,
        "tle_line1": "1 37054U 99025EEN 25352.18249814  .00000467  00000+0  22919-3 0  9990",
        "tle_line2": "2 37054  98.5505 334.4558 0101229  89.7023 271.5753 14.19457855645069"
      },
      "geometry": {
        "type": "Point",
        "coordinates": [
          -24.621233946857718,
          5.166860044698814
        ]
      }
    },
    {
      "type": "Feature",
      "properties": {
        "norad_id": 37056,
        "name": "FENGYUN 1C DEB",
        "group": "fengyun-1c-debris",
        "lat": -77.04880665209896,
        "lon": 60.16857199154326,
        "alt_km": 903.7921003853171,
        "timestamp": "2025-12-19T22:41:52.682679+00:00",
        "meta_object_name": "FENGYUN 1C DEB",
        "meta_object_id": "1999-025EEQ",
        "meta_epoch": "2025-12-17T08:10:24.720960",
        "meta_mean_motion": 14.50465139,
        "meta_eccentricity": 0.02688582,
        "meta_inclination": 98.9815,
        "meta_ra_of_asc_node": 13.9371,
        "meta_arg_of_pericenter": 132.0541,
        "meta_mean_anomaly": 230.387,
        "meta_ephemeris_type": 0,
        "meta_classification_type": "U",
        "meta_norad_cat_id": 37056,
        "meta_element_set_no": 999,
        "meta_rev_at_epoch": 65478,
        "meta_bstar": 0.0002042958,
        "meta_mean_motion_dot": 1.21e-05,
        "meta_mean_motion_ddot": 0,
        "tle_line1": "1 37056U 99025EEQ 25351.34056390  .00001210  00000+0  20430-3 0  9997",
        "tle_line2": "2 37056  98.9815  13.9371 0268858 132.0541 230.3870 14.50465139654781"
      },
      "geometry": {
        "type": "Point",
        "coordinates": [
          60.16857199154326,
          -77.04880665209896
        ]
      }
    },
    {
      "type": "Feature",
      "properties": {
        "norad_id": 37057,
        "name": "FENGYUN 1C DEB",
        "group": "fengyun-1c-debris",
        "lat": 61.41745947929567,
        "lon": -8.220006957931005,
        "alt_km": 783.3747609479024,
        "timestamp": "2025-12-19T22:41:52.682690+00:00",
        "meta_object_name": "FENGYUN 1C DEB",
        "meta_object_id": "1999-025EER",
        "meta_epoch": "2025-12-17T06:45:30.189888",
        "meta_mean_motion": 13.96114932,
        "meta_eccentricity": 0.02852808,
        "meta_inclination": 98.9227,
        "meta_ra_of_asc_node": 5.9539,
        "meta_arg_of_pericenter": 126.935,
        "meta_mean_anomaly": 235.8309,
        "meta_ephemeris_type": 0,
        "meta_classification_type": "U",
        "meta_norad_cat_id": 37057,
        "meta_element_set_no": 999,
        "meta_rev_at_epoch": 63661,
        "meta_bstar": 0.00025745621,
        "meta_mean_motion_dot": 4.57e-06,
        "meta_mean_motion_ddot": 0,
        "tle_line1": "1 37057U 99025EER 25351.28159942  .00000457  00000+0  25746-3 0  9995",
        "tle_line2": "2 37057  98.9227   5.9539 0285280 126.9350 235.8309 13.96114932636614"
      },
      "geometry": {
        "type": "Point",
        "coordinates": [
          -8.220006957931005,
          61.41745947929567
        ]
      }
    },
    {
      "type": "Feature",
      "properties": {
        "norad_id": 37061,
        "name": "FENGYUN 1C DEB",
        "group": "fengyun-1c-debris",
        "lat": 66.17993858530704,
        "lon": 37.89296624730198,
        "alt_km": 1048.8459024138829,
        "timestamp": "2025-12-19T22:41:52.682700+00:00",
        "meta_object_name": "FENGYUN 1C DEB",
        "meta_object_id": "1999-025EEV",
        "meta_epoch": "2025-12-18T09:50:01.677696",
        "meta_mean_motion": 13.13571559,
        "meta_eccentricity": 0.08013765,
        "meta_inclination": 98.0852,
        "meta_ra_of_asc_node": 55.4892,
        "meta_arg_of_pericenter": 351.5375,
        "meta_mean_anomaly": 7.2878,
        "meta_ephemeris_type": 0,
        "meta_classification_type": "U",
        "meta_norad_cat_id": 37061,
        "meta_element_set_no": 999,
        "meta_rev_at_epoch": 8230,
        "meta_bstar": 0.0027958395,
        "meta_mean_motion_dot": 5.412e-05,
        "meta_mean_motion_ddot": 0,
        "tle_line1": "1 37061U 99025EEV 25352.40974164  .00005412  00000+0  27958-2 0  9998",
        "tle_line2": "2 37061  98.0852  55.4892 0801376 351.5375   7.2878 13.13571559 82303"
      },
      "geometry": {
        "type": "Point",
        "coordinates": [
          37.89296624730198,
          66.17993858530704
        ]
      }
    },
    {
      "type": "Feature",
      "properties": {
        "norad_id": 37064,
        "name": "FENGYUN 1C DEB",
        "group": "fengyun-1c-debris",
        "lat": 75.17396415517885,
        "lon": 2.428012627515947,
        "alt_km": 758.9973897150394,
        "timestamp": "2025-12-19T22:41:52.682710+00:00",
        "meta_object_name": "FENGYUN 1C DEB",
        "meta_object_id": "1999-025EEY",
        "meta_epoch": "2025-11-25T16:29:09.460320",
        "meta_mean_motion": 14.15612933,
        "meta_eccentricity": 0.01070067,
        "meta_inclination": 98.9095,
        "meta_ra_of_asc_node": 121.83,
        "meta_arg_of_pericenter": 150.7609,
        "meta_mean_anomaly": 209.9612,
        "meta_ephemeris_type": 0,
        "meta_classification_type": "U",
        "meta_norad_cat_id": 37064,
        "meta_element_set_no": 999,
        "meta_rev_at_epoch": 81294,
        "meta_bstar": 0.0049331234,
        "meta_mean_motion_dot": 0.00010179,
        "meta_mean_motion_ddot": 0,
        "tle_line1": "1 37064U 99025EEY 25329.68691505  .00010179  00000+0  49331-2 0  9995",
        "tle_line2": "2 37064  98.9095 121.8300 0107006 150.7609 209.9612 14.15612933812947"
      },
      "geometry": {
        "type": "Point",
        "coordinates": [
          2.428012627515947,
          75.17396415517885
        ]
      }
    },
    {
      "type": "Feature",
      "properties": {
        "norad_id": 37065,
        "name": "FENGYUN 1C DEB",
        "group": "fengyun-1c-debris",
        "lat": -39.53291762242437,
        "lon": -177.48590299877475,
        "alt_km": 1046.942167480117,
        "timestamp": "2025-12-19T22:41:52.682720+00:00",
        "meta_object_name": "FENGYUN 1C DEB",
        "meta_object_id": "1999-025EEZ",
        "meta_epoch": "2025-12-13T18:30:23.335488",
        "meta_mean_motion": 13.59126537,
        "meta_eccentricity": 0.02987556,
        "meta_inclination": 103.2861,
        "meta_ra_of_asc_node": 162.9273,
        "meta_arg_of_pericenter": 240.3853,
        "meta_mean_anomaly": 116.7203,
        "meta_ephemeris_type": 0,
        "meta_classification_type": "U",
        "meta_norad_cat_id": 37065,
        "meta_element_set_no": 999,
        "meta_rev_at_epoch": 22216,
        "meta_bstar": 0.0032978969,
        "meta_mean_motion_dot": 3.181e-05,
        "meta_mean_motion_ddot": 0,
        "tle_line1": "1 37065U 99025EEZ 25347.77110342  .00003181  00000+0  32979-2 0  9996",
        "tle_line2": "2 37065 103.2861 162.9273 0298755 240.3853 116.7203 13.59126537222160"
      },
      "geometry": {
        "type": "Point",
        "coordinates": [
          -177.48590299877475,
          -39.53291762242437
        ]
      }
    }
  ]
}